start=new Date('2022-01-23T00:00:00.000Z').valueOf();
sats=[{"TLE_LINE1":"1 50815U 22001N   22022.91667824 -.00821051  00000-0 -59325-2 0  9990","DECAY_DATE":null,"MEAN_MOTION_DDOT":"0.0000000000000","BSTAR":"-0.00593250000000","MEAN_ELEMENT_THEORY":"SGP4","PERIAPSIS":"343.656","SEMIMAJOR_AXIS":"6722.510","ARG_OF_PERICENTER":"73.0864","GP_ID":"194404127","TIME_SYSTEM":"UTC","ECCENTRICITY":"0.00010700","TLE_LINE2":"2 50815  53.2175 119.7818 0001070  73.0864 231.6697 15.75090620  3827","REF_FRAME":"TEME","NORAD_CAT_ID":"50815","RCS_SIZE":"LARGE","LAUNCH_DATE":"2022-01-06","OBJECT_TYPE":"PAYLOAD","MEAN_ANOMALY":"231.6697","EPOCH":"2022-01-22T22:00:00.999936","INCLINATION":"53.2175","OBJECT_NAME":"STARLINK-3234","PERIOD":"91.423","ELEMENT_SET_NO":"999","SITE":"AFETR","FILE":"3280338","EPHEMERIS_TYPE":"0","MEAN_MOTION":"15.75090620","COUNTRY_CODE":"US","RA_OF_ASC_NODE":"119.7818","MEAN_MOTION_DOT":"-0.00821051","CENTER_NAME":"EARTH","APOAPSIS":"345.095","OBJECT_ID":"2022-001N","CLASSIFICATION_TYPE":"U","REV_AT_EPOCH":"382"},{"EPHEMERIS_TYPE":"0","FILE":"3280308","SITE":"AFETR","ELEMENT_SET_NO":"999","PERIOD":"91.418","OBJECT_NAME":"STARLINK-3342","REV_AT_EPOCH":"383","CLASSIFICATION_TYPE":"U","OBJECT_ID":"2022-001P","APOAPSIS":"344.829","CENTER_NAME":"EARTH","MEAN_MOTION_DOT":"-0.00820909","RA_OF_ASC_NODE":"119.7719","COUNTRY_CODE":"US","MEAN_MOTION":"15.75177550","TIME_SYSTEM":"UTC","GP_ID":"194403759","ARG_OF_PERICENTER":"88.0494","SEMIMAJOR_AXIS":"6722.263","PERIAPSIS":"343.427","MEAN_ELEMENT_THEORY":"SGP4","BSTAR":"-0.00590880000000","MEAN_MOTION_DDOT":"0.0000000000000","DECAY_DATE":null,"TLE_LINE1":"1 50816U 22001P   22022.91667824 -.00820909  00000-0 -59088-2 0  9998","EPOCH":"2022-01-22T22:00:00.999936","INCLINATION":"53.2175","MEAN_ANOMALY":"221.4733","OBJECT_TYPE":"PAYLOAD","LAUNCH_DATE":"2022-01-06","RCS_SIZE":"LARGE","NORAD_CAT_ID":"50816","REF_FRAME":"TEME","TLE_LINE2":"2 50816  53.2175 119.7719 0001043  88.0494 221.4733 15.75177550  3830","ECCENTRICITY":"0.00010430"},{"SEMIMAJOR_AXIS":"6722.481","ARG_OF_PERICENTER":"87.7185","GP_ID":"194404660","TIME_SYSTEM":"UTC","TLE_LINE1":"1 50817U 22001Q   22022.91667824 -.00820893  00000-0 -59286-2 0  9991","MEAN_MOTION_DDOT":"0.0000000000000","DECAY_DATE":null,"BSTAR":"-0.00592860000000","MEAN_ELEMENT_THEORY":"SGP4","PERIAPSIS":"343.650","TLE_LINE2":"2 50817  53.2175 119.7806 0001034  87.7185 217.6356 15.75101075  3805","NORAD_CAT_ID":"50817","REF_FRAME":"TEME","RCS_SIZE":"LARGE","LAUNCH_DATE":"2022-01-06","OBJECT_TYPE":"PAYLOAD","MEAN_ANOMALY":"217.6356","EPOCH":"2022-01-22T22:00:00.999936","INCLINATION":"53.2175","ECCENTRICITY":"0.00010340","ELEMENT_SET_NO":"999","SITE":"AFETR","FILE":"3280345","EPHEMERIS_TYPE":"0","OBJECT_NAME":"STARLINK-3341","PERIOD":"91.423","CENTER_NAME":"EARTH","APOAPSIS":"345.041","OBJECT_ID":"2022-001Q","CLASSIFICATION_TYPE":"U","REV_AT_EPOCH":"380","MEAN_MOTION":"15.75101075","COUNTRY_CODE":"US","RA_OF_ASC_NODE":"119.7806","MEAN_MOTION_DOT":"-0.00820893"},{"PERIAPSIS":"343.434","MEAN_ELEMENT_THEORY":"SGP4","TLE_LINE1":"1 50818U 22001R   22022.91667824 -.00821324  00000-0 -59175-2 0  9999","BSTAR":"-0.00591750000000","DECAY_DATE":null,"MEAN_MOTION_DDOT":"0.0000000000000","GP_ID":"194404652","TIME_SYSTEM":"UTC","ARG_OF_PERICENTER":"61.1838","SEMIMAJOR_AXIS":"6722.324","ECCENTRICITY":"0.00011230","LAUNCH_DATE":"2022-01-06","INCLINATION":"53.2175","EPOCH":"2022-01-22T22:00:00.999936","MEAN_ANOMALY":"247.1486","OBJECT_TYPE":"PAYLOAD","NORAD_CAT_ID":"50818","REF_FRAME":"TEME","TLE_LINE2":"2 50818  53.2175 119.7743 0001123  61.1838 247.1486 15.75156076  3832","RCS_SIZE":"LARGE","PERIOD":"91.420","OBJECT_NAME":"STARLINK-3336","EPHEMERIS_TYPE":"0","SITE":"AFETR","ELEMENT_SET_NO":"999","FILE":"3280345","RA_OF_ASC_NODE":"119.7743","MEAN_MOTION_DOT":"-0.00821324","COUNTRY_CODE":"US","MEAN_MOTION":"15.75156076","REV_AT_EPOCH":"383","CENTER_NAME":"EARTH","CLASSIFICATION_TYPE":"U","APOAPSIS":"344.944","OBJECT_ID":"2022-001R"},{"ECCENTRICITY":"0.00010510","TLE_LINE2":"2 50819  53.2175 119.7769 0001051  79.3405 227.8057 15.75132870  3758","NORAD_CAT_ID":"50819","REF_FRAME":"TEME","RCS_SIZE":"LARGE","LAUNCH_DATE":"2022-01-06","OBJECT_TYPE":"PAYLOAD","MEAN_ANOMALY":"227.8057","INCLINATION":"53.2175","EPOCH":"2022-01-22T22:00:00.999936","TLE_LINE1":"1 50819U 22001S   22022.91667824 -.00821034  00000-0 -59214-2 0  9992","DECAY_DATE":null,"MEAN_MOTION_DDOT":"0.0000000000000","BSTAR":"-0.00592140000000","PERIAPSIS":"343.549","MEAN_ELEMENT_THEORY":"SGP4","SEMIMAJOR_AXIS":"6722.390","ARG_OF_PERICENTER":"79.3405","GP_ID":"194404559","TIME_SYSTEM":"UTC","MEAN_MOTION":"15.75132870","COUNTRY_CODE":"US","RA_OF_ASC_NODE":"119.7769","MEAN_MOTION_DOT":"-0.00821034","CENTER_NAME":"EARTH","OBJECT_ID":"2022-001S","APOAPSIS":"344.962","CLASSIFICATION_TYPE":"U","REV_AT_EPOCH":"375","OBJECT_NAME":"STARLINK-3327","PERIOD":"91.421","ELEMENT_SET_NO":"999","SITE":"AFETR","FILE":"3280343","EPHEMERIS_TYPE":"0"},{"ECCENTRICITY":"0.00011680","TLE_LINE2":"2 50820  53.2175 119.7707 0001168  56.4686 253.6473 15.75189033  3839","REF_FRAME":"TEME","NORAD_CAT_ID":"50820","RCS_SIZE":"LARGE","LAUNCH_DATE":"2022-01-06","MEAN_ANOMALY":"253.6473","OBJECT_TYPE":"PAYLOAD","INCLINATION":"53.2175","EPOCH":"2022-01-22T22:00:00.999936","TLE_LINE1":"1 50820U 22001T   22022.91667824 -.00821371  00000-0 -59092-2 0  9992","MEAN_MOTION_DDOT":"0.0000000000000","DECAY_DATE":null,"BSTAR":"-0.00590920000000","MEAN_ELEMENT_THEORY":"SGP4","PERIAPSIS":"343.310","SEMIMAJOR_AXIS":"6722.230","ARG_OF_PERICENTER":"56.4686","GP_ID":"194404575","TIME_SYSTEM":"UTC","MEAN_MOTION":"15.75189033","COUNTRY_CODE":"US","RA_OF_ASC_NODE":"119.7707","MEAN_MOTION_DOT":"-0.00821371","CENTER_NAME":"EARTH","OBJECT_ID":"2022-001T","APOAPSIS":"344.880","CLASSIFICATION_TYPE":"U","REV_AT_EPOCH":"383","OBJECT_NAME":"STARLINK-3339","PERIOD":"91.418","ELEMENT_SET_NO":"999","SITE":"AFETR","FILE":"3280344","EPHEMERIS_TYPE":"0"},{"BSTAR":"-0.00590340000000","MEAN_MOTION_DDOT":"0.0000000000000","DECAY_DATE":null,"TLE_LINE1":"1 50822U 22001V   22022.91667824 -.00821344  00000-0 -59034-2 0  9990","PERIAPSIS":"343.279","MEAN_ELEMENT_THEORY":"SGP4","ARG_OF_PERICENTER":"61.9087","SEMIMAJOR_AXIS":"6722.168","TIME_SYSTEM":"UTC","GP_ID":"194404690","ECCENTRICITY":"0.00011220","RCS_SIZE":"LARGE","NORAD_CAT_ID":"50822","REF_FRAME":"TEME","TLE_LINE2":"2 50822  53.2175 119.7682 0001122  61.9087 249.3953 15.75210916  3806","EPOCH":"2022-01-22T22:00:00.999936","INCLINATION":"53.2175","OBJECT_TYPE":"PAYLOAD","MEAN_ANOMALY":"249.3953","LAUNCH_DATE":"2022-01-06","OBJECT_NAME":"STARLINK-3343","PERIOD":"91.416","FILE":"3280348","SITE":"AFETR","ELEMENT_SET_NO":"999","EPHEMERIS_TYPE":"0","COUNTRY_CODE":"US","MEAN_MOTION":"15.75210916","MEAN_MOTION_DOT":"-0.00821344","RA_OF_ASC_NODE":"119.7682","CLASSIFICATION_TYPE":"U","APOAPSIS":"344.787","OBJECT_ID":"2022-001V","CENTER_NAME":"EARTH","REV_AT_EPOCH":"380"},{"ECCENTRICITY":"0.00011820","RCS_SIZE":"LARGE","TLE_LINE2":"2 50823  53.2175 119.7793 0001182  55.4381 250.5117 15.75112417  3837","NORAD_CAT_ID":"50823","REF_FRAME":"TEME","OBJECT_TYPE":"PAYLOAD","MEAN_ANOMALY":"250.5117","EPOCH":"2022-01-22T22:00:00.999936","INCLINATION":"53.2175","LAUNCH_DATE":"2022-01-06","MEAN_MOTION_DDOT":"0.0000000000000","DECAY_DATE":null,"BSTAR":"-0.00592970000000","TLE_LINE1":"1 50823U 22001W   22022.91667824 -.00821445  00000-0 -59297-2 0  9994","PERIAPSIS":"343.519","MEAN_ELEMENT_THEORY":"SGP4","SEMIMAJOR_AXIS":"6722.448","ARG_OF_PERICENTER":"55.4381","TIME_SYSTEM":"UTC","GP_ID":"194404584","MEAN_MOTION":"15.75112417","COUNTRY_CODE":"US","MEAN_MOTION_DOT":"-0.00821445","RA_OF_ASC_NODE":"119.7793","APOAPSIS":"345.108","OBJECT_ID":"2022-001W","CLASSIFICATION_TYPE":"U","CENTER_NAME":"EARTH","REV_AT_EPOCH":"383","OBJECT_NAME":"STARLINK-3334","PERIOD":"91.422","FILE":"3280348","ELEMENT_SET_NO":"999","SITE":"AFETR","EPHEMERIS_TYPE":"0"},{"FILE":"3280297","SITE":"AFETR","ELEMENT_SET_NO":"999","EPHEMERIS_TYPE":"0","OBJECT_NAME":"STARLINK-3332","PERIOD":"91.417","CLASSIFICATION_TYPE":"U","APOAPSIS":"344.814","OBJECT_ID":"2022-001Y","CENTER_NAME":"EARTH","REV_AT_EPOCH":"382","COUNTRY_CODE":"US","MEAN_MOTION":"15.75199826","MEAN_MOTION_DOT":"-0.00821332","RA_OF_ASC_NODE":"119.7695","ARG_OF_PERICENTER":"63.3881","SEMIMAJOR_AXIS":"6722.200","TIME_SYSTEM":"UTC","GP_ID":"194403640","BSTAR":"-0.00590620000000","MEAN_MOTION_DDOT":"0.0000000000000","DECAY_DATE":null,"TLE_LINE1":"1 50825U 22001Y   22022.91667824 -.00821332  00000-0 -59062-2 0  9991","MEAN_ELEMENT_THEORY":"SGP4","PERIAPSIS":"343.315","RCS_SIZE":"LARGE","REF_FRAME":"TEME","NORAD_CAT_ID":"50825","TLE_LINE2":"2 50825  53.2175 119.7695 0001115  63.3881 247.3225 15.75199826  3821","EPOCH":"2022-01-22T22:00:00.999936","INCLINATION":"53.2175","MEAN_ANOMALY":"247.3225","OBJECT_TYPE":"PAYLOAD","LAUNCH_DATE":"2022-01-06","ECCENTRICITY":"0.00011150"},{"ECCENTRICITY":"0.00011150","MEAN_ANOMALY":"253.2885","OBJECT_TYPE":"PAYLOAD","EPOCH":"2022-01-22T22:00:00.999936","INCLINATION":"53.2175","LAUNCH_DATE":"2022-01-06","RCS_SIZE":"LARGE","TLE_LINE2":"2 50826  53.2175 119.7621 0001115  60.9843 253.2885 15.75265040  3833","NORAD_CAT_ID":"50826","REF_FRAME":"TEME","MEAN_ELEMENT_THEORY":"SGP4","PERIAPSIS":"343.130","MEAN_MOTION_DDOT":"0.0000000000000","DECAY_DATE":null,"BSTAR":"-0.00588980000000","TLE_LINE1":"1 50826U 22001Z   22022.91667824 -.00821399  00000-0 -58898-2 0  9991","TIME_SYSTEM":"UTC","GP_ID":"194403486","SEMIMAJOR_AXIS":"6722.014","ARG_OF_PERICENTER":"60.9843","MEAN_MOTION_DOT":"-0.00821399","RA_OF_ASC_NODE":"119.7621","MEAN_MOTION":"15.75265040","COUNTRY_CODE":"US","REV_AT_EPOCH":"383","APOAPSIS":"344.629","OBJECT_ID":"2022-001Z","CLASSIFICATION_TYPE":"U","CENTER_NAME":"EARTH","PERIOD":"91.413","OBJECT_NAME":"STARLINK-3337","EPHEMERIS_TYPE":"0","FILE":"3280297","ELEMENT_SET_NO":"999","SITE":"AFETR"}];
